[{"OBJECT_NAME":"STARLINK-37084","OBJECT_ID":"2026-054Y","EPOCH":"2026-04-09T06:00:02.000160","MEAN_MOTION":15.75261546,"ECCENTRICITY":0.00010429,"INCLINATION":53.1593,"RA_OF_ASC_NODE":159.4399,"ARG_OF_PERICENTER":85.2829,"MEAN_ANOMALY":83.1566,"EPHEMERIS_TYPE":0,"CLASSIFICATION_TYPE":"U","NORAD_CAT_ID":68254,"ELEMENT_SET_NO":999,"REV_AT_EPOCH":482,"BSTAR":-0.00042858983,"MEAN_MOTION_DOT":-0.00065891,"MEAN_MOTION_DDOT":0},{"OBJECT_NAME":"STARLINK-37075","OBJECT_ID":"2026-054Z","EPOCH":"2026-04-09T06:34:22.092384","MEAN_MOTION":15.80956833,"ECCENTRICITY":0.00012778,"INCLINATION":53.157,"RA_OF_ASC_NODE":159.206,"ARG_OF_PERICENTER":67.9223,"MEAN_ANOMALY":292.1936,"EPHEMERIS_TYPE":0,"CLASSIFICATION_TYPE":"U","NORAD_CAT_ID":68255,"ELEMENT_SET_NO":999,"REV_AT_EPOCH":361,"BSTAR":0.0011950848,"MEAN_MOTION_DOT":0.00242862,"MEAN_MOTION_DDOT":0},{"OBJECT_NAME":"STARLINK-36333","OBJECT_ID":"2026-054AA","EPOCH":"2026-04-09T06:00:02.000160","MEAN_MOTION":15.75270098,"ECCENTRICITY":0.00015443,"INCLINATION":53.1594,"RA_OF_ASC_NODE":159.3345,"ARG_OF_PERICENTER":84.5013,"MEAN_ANOMALY":135.4586,"EPHEMERIS_TYPE":0,"CLASSIFICATION_TYPE":"U","NORAD_CAT_ID":68256,"ELEMENT_SET_NO":999,"REV_AT_EPOCH":486,"BSTAR":-0.00061193451,"MEAN_MOTION_DOT":-0.00093543,"MEAN_MOTION_DDOT":0},{"OBJECT_NAME":"STARLINK-36745","OBJECT_ID":"2026-054AB","EPOCH":"2026-04-09T07:21:49.757760","MEAN_MOTION":15.75297815,"ECCENTRICITY":8.273e-5,"INCLINATION":53.1571,"RA_OF_ASC_NODE":159.4247,"ARG_OF_PERICENTER":65.1111,"MEAN_ANOMALY":294.9995,"EPHEMERIS_TYPE":0,"CLASSIFICATION_TYPE":"U","NORAD_CAT_ID":68257,"ELEMENT_SET_NO":999,"REV_AT_EPOCH":361,"BSTAR":0.0015171799,"MEAN_MOTION_DOT":0.00239238,"MEAN_MOTION_DDOT":0},{"OBJECT_NAME":"STARLINK-36890","OBJECT_ID":"2026-054AC","EPOCH":"2026-04-09T06:28:57.987840","MEAN_MOTION":15.80945205,"ECCENTRICITY":0.00010731,"INCLINATION":53.1569,"RA_OF_ASC_NODE":159.1805,"ARG_OF_PERICENTER":108.3598,"MEAN_ANOMALY":251.7542,"EPHEMERIS_TYPE":0,"CLASSIFICATION_TYPE":"U","NORAD_CAT_ID":68258,"ELEMENT_SET_NO":999,"REV_AT_EPOCH":361,"BSTAR":0.0010131149,"MEAN_MOTION_DOT":0.00204749,"MEAN_MOTION_DDOT":0},{"OBJECT_NAME":"STARLINK-36323","OBJECT_ID":"2026-054AD","EPOCH":"2026-04-09T06:55:12.629568","MEAN_MOTION":15.75265197,"ECCENTRICITY":0.00011296,"INCLINATION":53.1585,"RA_OF_ASC_NODE":159.3022,"ARG_OF_PERICENTER":88.8404,"MEAN_ANOMALY":271.2746,"EPHEMERIS_TYPE":0,"CLASSIFICATION_TYPE":"U","NORAD_CAT_ID":68259,"ELEMENT_SET_NO":999,"REV_AT_EPOCH":361,"BSTAR":0.0006942742,"MEAN_MOTION_DOT":0.00107265,"MEAN_MOTION_DDOT":0},{"OBJECT_NAME":"STARLINK-37056","OBJECT_ID":"2026-054AE","EPOCH":"2026-04-09T06:27:53.129088","MEAN_MOTION":15.80934226,"ECCENTRICITY":0.00018705,"INCLINATION":53.1567,"RA_OF_ASC_NODE":159.1752,"ARG_OF_PERICENTER":320.9165,"MEAN_ANOMALY":39.1722,"EPHEMERIS_TYPE":0,"CLASSIFICATION_TYPE":"U","NORAD_CAT_ID":68260,"ELEMENT_SET_NO":999,"REV_AT_EPOCH":361,"BSTAR":0.0010235391,"MEAN_MOTION_DOT":0.00206812,"MEAN_MOTION_DDOT":0},{"OBJECT_NAME":"TEN-KOH 2","OBJECT_ID":"2025-241B","EPOCH":"2026-04-08T22:34:25.931424","MEAN_MOTION":15.22994641,"ECCENTRICITY":0.0004768,"INCLINATION":51.6413,"RA_OF_ASC_NODE":289.0365,"ARG_OF_PERICENTER":270.6101,"MEAN_ANOMALY":89.433,"EPHEMERIS_TYPE":0,"CLASSIFICATION_TYPE":"U","NORAD_CAT_ID":68261,"ELEMENT_SET_NO":999,"REV_AT_EPOCH":435,"BSTAR":0.00031025,"MEAN_MOTION_DOT":7.069e-5,"MEAN_MOTION_DDOT":0},{"OBJECT_NAME":"STARLINK-37162","OBJECT_ID":"2026-055A","EPOCH":"2026-04-09T05:46:43.616640","MEAN_MOTION":15.80928138,"ECCENTRICITY":8.075e-5,"INCLINATION":53.1577,"RA_OF_ASC_NODE":184.1884,"ARG_OF_PERICENTER":90.5884,"MEAN_ANOMALY":269.5231,"EPHEMERIS_TYPE":0,"CLASSIFICATION_TYPE":"U","NORAD_CAT_ID":68262,"ELEMENT_SET_NO":999,"REV_AT_EPOCH":451,"BSTAR":0.00097127874,"MEAN_MOTION_DOT":0.00195909,"MEAN_MOTION_DDOT":0},{"OBJECT_NAME":"STARLINK-37156","OBJECT_ID":"2026-055B","EPOCH":"2026-04-09T05:45:38.882304","MEAN_MOTION":15.80952845,"ECCENTRICITY":8.888e-5,"INCLINATION":53.1574,"RA_OF_ASC_NODE":184.1832,"ARG_OF_PERICENTER":85.2641,"MEAN_ANOMALY":274.8483,"EPHEMERIS_TYPE":0,"CLASSIFICATION_TYPE":"U","NORAD_CAT_ID":68263,"ELEMENT_SET_NO":999,"REV_AT_EPOCH":451,"BSTAR":0.0011316379,"MEAN_MOTION_DOT":0.00229531,"MEAN_MOTION_DDOT":0},{"OBJECT_NAME":"STARLINK-37163","OBJECT_ID":"2026-055C","EPOCH":"2026-04-09T05:43:29.195904","MEAN_MOTION":15.80960927,"ECCENTRICITY":0.00012256,"INCLINATION":53.1577,"RA_OF_ASC_NODE":184.1722,"ARG_OF_PERICENTER":65.2669,"MEAN_ANOMALY":294.8481,"EPHEMERIS_TYPE":0,"CLASSIFICATION_TYPE":"U","NORAD_CAT_ID":68264,"ELEMENT_SET_NO":999,"REV_AT_EPOCH":451,"BSTAR":0.0012306305,"MEAN_MOTION_DOT":0.00250373,"MEAN_MOTION_DDOT":0},{"OBJECT_NAME":"STARLINK-37133","OBJECT_ID":"2026-055D","EPOCH":"2026-04-09T05:44:33.980352","MEAN_MOTION":15.80953762,"ECCENTRICITY":9.043e-5,"INCLINATION":53.1576,"RA_OF_ASC_NODE":184.1779,"ARG_OF_PERICENTER":87.1832,"MEAN_ANOMALY":272.9294,"EPHEMERIS_TYPE":0,"CLASSIFICATION_TYPE":"U","NORAD_CAT_ID":68265,"ELEMENT_SET_NO":999,"REV_AT_EPOCH":451,"BSTAR":0.0011736589,"MEAN_MOTION_DOT":0.00238336,"MEAN_MOTION_DDOT":0},{"OBJECT_NAME":"STARLINK-37042","OBJECT_ID":"2026-055E","EPOCH":"2026-04-09T05:42:24.388992","MEAN_MOTION":15.80924328,"ECCENTRICITY":8.517e-5,"INCLINATION":53.1577,"RA_OF_ASC_NODE":184.1675,"ARG_OF_PERICENTER":78.1958,"MEAN_ANOMALY":281.916,"EPHEMERIS_TYPE":0,"CLASSIFICATION_TYPE":"U","NORAD_CAT_ID":68266,"ELEMENT_SET_NO":999,"REV_AT_EPOCH":451,"BSTAR":0.0010402452,"MEAN_MOTION_DOT":0.00210183,"MEAN_MOTION_DDOT":0},{"OBJECT_NAME":"STARLINK-37103","OBJECT_ID":"2026-055F","EPOCH":"2026-04-09T05:41:19.549248","MEAN_MOTION":15.80918809,"ECCENTRICITY":0.00012246,"INCLINATION":53.1581,"RA_OF_ASC_NODE":184.1628,"ARG_OF_PERICENTER":47.5317,"MEAN_ANOMALY":312.5809,"EPHEMERIS_TYPE":0,"CLASSIFICATION_TYPE":"U","NORAD_CAT_ID":68267,"ELEMENT_SET_NO":999,"REV_AT_EPOCH":451,"BSTAR":0.00087921838,"MEAN_MOTION_DOT":0.00176801,"MEAN_MOTION_DDOT":0},{"OBJECT_NAME":"STARLINK-36999","OBJECT_ID":"2026-055G","EPOCH":"2026-04-09T05:40:14.674080","MEAN_MOTION":15.80946036,"ECCENTRICITY":0.00010588,"INCLINATION":53.1579,"RA_OF_ASC_NODE":184.1572,"ARG_OF_PERICENTER":78.2439,"MEAN_ANOMALY":281.8703,"EPHEMERIS_TYPE":0,"CLASSIFICATION_TYPE":"U","NORAD_CAT_ID":68268,"ELEMENT_SET_NO":999,"REV_AT_EPOCH":451,"BSTAR":0.00097271105,"MEAN_MOTION_DOT":0.00196371,"MEAN_MOTION_DDOT":0},{"OBJECT_NAME":"STARLINK-36962","OBJECT_ID":"2026-055H","EPOCH":"2026-04-09T05:39:09.914688","MEAN_MOTION":15.80953399,"ECCENTRICITY":0.00015758,"INCLINATION":53.1577,"RA_OF_ASC_NODE":184.1524,"ARG_OF_PERICENTER":37.3345,"MEAN_ANOMALY":322.7787,"EPHEMERIS_TYPE":0,"CLASSIFICATION_TYPE":"U","NORAD_CAT_ID":68269,"ELEMENT_SET_NO":999,"REV_AT_EPOCH":451,"BSTAR":0.0012160644,"MEAN_MOTION_DOT":0.00247225,"MEAN_MOTION_DDOT":0}]
