STARLINK-37084          
1 68254U 26054Y   26099.25002315 -.00065891  00000+0 -42859-3 0  9997
2 68254  53.1593 159.4399 0001042  85.2829  83.1566 15.75261546  4829
STARLINK-37075          
1 68255U 26054Z   26099.27386681  .00242862  00000+0  11951-2 0  9992
2 68255  53.1570 159.2060 0001277  67.9223 292.1936 15.80956833  3618
STARLINK-36333          
1 68256U 26054AA  26099.25002315 -.00093543  00000+0 -61193-3 0  9996
2 68256  53.1594 159.3345 0001544  84.5013 135.4586 15.75270098  4865
STARLINK-36745          
1 68257U 26054AB  26099.30682590  .00239238  00000+0  15172-2 0  9998
2 68257  53.1571 159.4247 0000827  65.1111 294.9995 15.75297815  3613
STARLINK-36890          
1 68258U 26054AC  26099.27011560  .00204749  00000+0  10131-2 0  9997
2 68258  53.1569 159.1805 0001073 108.3598 251.7542 15.80945205  3619
STARLINK-36323          
1 68259U 26054AD  26099.28834062  .00107265  00000+0  69427-3 0  9997
2 68259  53.1585 159.3022 0001129  88.8404 271.2746 15.75265197  3613
STARLINK-37056          
1 68260U 26054AE  26099.26936492  .00206812  00000+0  10235-2 0  9997
2 68260  53.1567 159.1752 0001870 320.9165  39.1722 15.80934226  3617
TEN-KOH 2               
1 68261U 25241B   26098.94057791  .00007069  00000+0  31025-3 0  9999
2 68261  51.6413 289.0365 0004768 270.6101  89.4330 15.22994641  4352
STARLINK-37162          
1 68262U 26055A   26099.24078260  .00195909  00000+0  97128-3 0  9999
2 68262  53.1577 184.1884 0000807  90.5884 269.5231 15.80928138  4510
STARLINK-37156          
1 68263U 26055B   26099.24003336  .00229531  00000+0  11316-2 0  9995
2 68263  53.1574 184.1832 0000888  85.2641 274.8483 15.80952845  4512
STARLINK-37163          
1 68264U 26055C   26099.23853236  .00250373  00000+0  12306-2 0  9995
2 68264  53.1577 184.1722 0001225  65.2669 294.8481 15.80960927  4518
STARLINK-37133          
1 68265U 26055D   26099.23928218  .00238336  00000+0  11737-2 0  9991
2 68265  53.1576 184.1779 0000904  87.1832 272.9294 15.80953762  4516
STARLINK-37042          
1 68266U 26055E   26099.23778228  .00210183  00000+0  10402-2 0  9994
2 68266  53.1577 184.1675 0000851  78.1958 281.9160 15.80924328  4511
STARLINK-37103          
1 68267U 26055F   26099.23703182  .00176801  00000+0  87922-3 0  9992
2 68267  53.1581 184.1628 0001224  47.5317 312.5809 15.80918809  4517
STARLINK-36999          
1 68268U 26055G   26099.23628095  .00196371  00000+0  97271-3 0  9994
2 68268  53.1579 184.1572 0001058  78.2439 281.8703 15.80946036  4518
STARLINK-36962          
1 68269U 26055H   26099.23553142  .00247225  00000+0  12161-2 0  9994
2 68269  53.1577 184.1524 0001575  37.3345 322.7787 15.80953399  4517
